{"type": "FeatureCollection", "features": [ {"type": "Feature", "properties": {"norad_id": 43262, "name": "GAOFEN-1 04", "group": "resource", "lat": 77.58858169501926, "lon": -3.484174752370378, "alt_km": 632.4825534955789, "timestamp": "2025-12-04T21:36:15.531967+00:00", "meta": {"OBJECT_NAME": "GAOFEN-1 04", "OBJECT_ID": "2018-031D", "EPOCH": "2025-12-04T14:44:05.226432", "MEAN_MOTION": 14.76424038, "ECCENTRICITY": 0.00013083, "INCLINATION": 98.082, "RA_OF_ASC_NODE": 36.4458, "ARG_OF_PERICENTER": 61.8727, "MEAN_ANOMALY": 298.2615, "EPHEMERIS_TYPE": 0, "CLASSIFICATION_TYPE": "U", "NORAD_CAT_ID": 43262, "ELEMENT_SET_NO": 999, "REV_AT_EPOCH": 41397, "BSTAR": 0.00027726071, "MEAN_MOTION_DOT": 1.876e-05, "MEAN_MOTION_DDOT": 0}, "tle": {"line1": "1 43262U 18031D   25338.61394938  .00001876  00000+0  27726-3 0  9992", "line2": "2 43262  98.0820  36.4458 0001308  61.8727 298.2615 14.76424038413975"}}, "geometry": {"type": "Point", "coordinates": [-3.484174752370378, 77.58858169501926]}}, {"type": "Feature", "properties": {"norad_id": 43437, "name": "SENTINEL-3B", "group": "resource", "lat": -27.300631725829504, "lon": -140.2972690820676, "alt_km": 808.5106371120492, "timestamp": "2025-12-04T21:36:15.531984+00:00", "meta": {"OBJECT_NAME": "SENTINEL-3B", "OBJECT_ID": "2018-039A", "EPOCH": "2025-12-04T15:35:07.444608", "MEAN_MOTION": 14.26738162, "ECCENTRICITY": 0.00014757, "INCLINATION": 98.6277, "RA_OF_ASC_NODE": 43.9502, "ARG_OF_PERICENTER": 110.5366, "MEAN_ANOMALY": 249.5973, "EPHEMERIS_TYPE": 0, "CLASSIFICATION_TYPE": "U", "NORAD_CAT_ID": 43437, "ELEMENT_SET_NO": 999, "REV_AT_EPOCH": 39638, "BSTAR": 0.00015034966, "MEAN_MOTION_DOT": 3.2e-06, "MEAN_MOTION_DDOT": 0}, "tle": {"line1": "1 43437U 18039A   25338.64939172  .00000320  00000+0  15035-3 0  9995", "line2": "2 43437  98.6277  43.9502 0001475 110.5366 249.5973 14.26738162396382"}}, "geometry": {"type": "Point", "coordinates": [-140.2972690820676, -27.300631725829504]}}, {"type": "Feature", "properties": {"norad_id": 43461, "name": "GAOFEN-5 01", "group": "resource", "lat": -31.78878574529748, "lon": -52.9946566615806, "alt_km": 697.1207868675574, "timestamp": "2025-12-04T21:36:15.531994+00:00", "meta": {"OBJECT_NAME": "GAOFEN-5 01", "OBJECT_ID": "2018-043A", "EPOCH": "2025-12-04T11:53:06.566496", "MEAN_MOTION": 14.60395735, "ECCENTRICITY": 0.00014992, "INCLINATION": 98.4313, "RA_OF_ASC_NODE": 301.3191, "ARG_OF_PERICENTER": 7.6077, "MEAN_ANOMALY": 352.5145, "EPHEMERIS_TYPE": 0, "CLASSIFICATION_TYPE": "U", "NORAD_CAT_ID": 43461, "ELEMENT_SET_NO": 999, "REV_AT_EPOCH": 40327, "BSTAR": 0.0002184726, "MEAN_MOTION_DOT": 1.009e-05, "MEAN_MOTION_DDOT": 0}, "tle": {"line1": "1 43461U 18043A   25338.49521489  .00001009  00000+0  21847-3 0  9991", "line2": "2 43461  98.4313 301.3191 0001499   7.6077 352.5145 14.60395735403270"}}, "geometry": {"type": "Point", "coordinates": [-52.9946566615806, -31.78878574529748]}}, {"type": "Feature", "properties": {"norad_id": 43484, "name": "GAOFEN-6", "group": "resource", "lat": -48.17439980597394, "lon": -145.3855487295929, "alt_km": 654.4873205253853, "timestamp": "2025-12-04T21:36:15.532004+00:00", "meta": {"OBJECT_NAME": "GAOFEN-6", "OBJECT_ID": "2018-048A", "EPOCH": "2025-12-04T09:11:16.505088", "MEAN_MOTION": 14.7654025, "ECCENTRICITY": 0.00133256, "INCLINATION": 97.8043, "RA_OF_ASC_NODE": 42.9302, "ARG_OF_PERICENTER": 88.362, "MEAN_ANOMALY": 271.9117, "EPHEMERIS_TYPE": 0, "CLASSIFICATION_TYPE": "U", "NORAD_CAT_ID": 43484, "ELEMENT_SET_NO": 999, "REV_AT_EPOCH": 40464, "BSTAR": 0.00011617493, "MEAN_MOTION_DOT": 7.62e-06, "MEAN_MOTION_DDOT": 0}, "tle": {"line1": "1 43484U 18048A   25338.38282992  .00000762  00000+0  11617-3 0  9991", "line2": "2 43484  97.8043  42.9302 0013325  88.3620 271.9117 14.76540250404647"}}, "geometry": {"type": "Point", "coordinates": [-145.3855487295929, -48.17439980597394]}}, {"type": "Feature", "properties": {"norad_id": 43585, "name": "GAOFEN-11 01", "group": "resource", "lat": 27.108372958982635, "lon": -134.4095663092998, "alt_km": 422.1742520943026, "timestamp": "2025-12-04T21:36:15.532015+00:00", "meta": {"OBJECT_NAME": "GAOFEN-11 01", "OBJECT_ID": "2018-063A", "EPOCH": "2025-12-04T14:44:44.640384", "MEAN_MOTION": 15.48880096, "ECCENTRICITY": 0.00048239, "INCLINATION": 97.1576, "RA_OF_ASC_NODE": 41.6187, "ARG_OF_PERICENTER": 349.1401, "MEAN_ANOMALY": 10.9745, "EPHEMERIS_TYPE": 0, "CLASSIFICATION_TYPE": "U", "NORAD_CAT_ID": 43585, "ELEMENT_SET_NO": 999, "REV_AT_EPOCH": 41016, "BSTAR": 0.00050205018, "MEAN_MOTION_DOT": 0.00027027, "MEAN_MOTION_DDOT": 0}, "tle": {"line1": "1 43585U 18063A   25338.61440556  .00027027  00000+0  50205-3 0  9997", "line2": "2 43585  97.1576  41.6187 0004823 349.1401  10.9745 15.48880096410165"}}, "geometry": {"type": "Point", "coordinates": [-134.4095663092998, 27.108372958982635]}}, {"type": "Feature", "properties": {"norad_id": 43613, "name": "ICESAT-2", "group": "resource", "lat": 62.40861703588925, "lon": 62.465865078623736, "alt_km": 474.63445056425553, "timestamp": "2025-12-04T21:36:15.532025+00:00", "meta": {"OBJECT_NAME": "ICESAT-2", "OBJECT_ID": "2018-070A", "EPOCH": "2025-12-04T14:48:22.237056", "MEAN_MOTION": 15.28286229, "ECCENTRICITY": 4.974e-05, "INCLINATION": 92.0056, "RA_OF_ASC_NODE": 238.5445, "ARG_OF_PERICENTER": 145.5417, "MEAN_ANOMALY": 214.5865, "EPHEMERIS_TYPE": 0, "CLASSIFICATION_TYPE": "U", "NORAD_CAT_ID": 43613, "ELEMENT_SET_NO": 999, "REV_AT_EPOCH": 40274, "BSTAR": 0.0010101293, "MEAN_MOTION_DOT": 0.00027881, "MEAN_MOTION_DDOT": 0}, "tle": {"line1": "1 43613U 18070A   25338.61692404  .00027881  00000+0  10101-2 0  9996", "line2": "2 43613  92.0056 238.5445 0000497 145.5417 214.5865 15.28286229402742"}}, "geometry": {"type": "Point", "coordinates": [62.465865078623736, 62.40861703588925]}}, {"type": "Feature", "properties": {"norad_id": 43719, "name": "HYSIS", "group": "resource", "lat": -25.204207775131692, "lon": -141.88429810635293, "alt_km": 640.2356915718929, "timestamp": "2025-12-04T21:36:15.532035+00:00", "meta": {"OBJECT_NAME": "HYSIS", "OBJECT_ID": "2018-096A", "EPOCH": "2025-12-04T15:48:22.076640", "MEAN_MOTION": 14.78609198, "ECCENTRICITY": 0.0001615, "INCLINATION": 98.0108, "RA_OF_ASC_NODE": 41.6757, "ARG_OF_PERICENTER": 64.8201, "MEAN_ANOMALY": 295.3177, "EPHEMERIS_TYPE": 0, "CLASSIFICATION_TYPE": "U", "NORAD_CAT_ID": 43719, "ELEMENT_SET_NO": 999, "REV_AT_EPOCH": 37867, "BSTAR": 3.5541e-05, "MEAN_MOTION_DOT": 2.08e-06, "MEAN_MOTION_DDOT": 0}, "tle": {"line1": "1 43719U 18096A   25338.65858885  .00000208  00000+0  35541-4 0  9993", "line2": "2 43719  98.0108  41.6757 0001615  64.8201 295.3177 14.78609198378674"}}, "geometry": {"type": "Point", "coordinates": [-141.88429810635293, -25.204207775131692]}}, {"type": "Feature", "properties": {"norad_id": 43783, "name": "KAZSTSAT", "group": "resource", "lat": -38.066382243444714, "lon": -171.4640486282114, "alt_km": 578.994932065536, "timestamp": "2025-12-04T21:36:15.532046+00:00", "meta": {"OBJECT_NAME": "KAZSTSAT", "OBJECT_ID": "2018-099AB", "EPOCH": "2025-12-04T14:13:34.367232", "MEAN_MOTION": 14.99310534, "ECCENTRICITY": 0.00064526, "INCLINATION": 97.4554, "RA_OF_ASC_NODE": 14.128, "ARG_OF_PERICENTER": 0.8139, "MEAN_ANOMALY": 359.3094, "EPHEMERIS_TYPE": 0, "CLASSIFICATION_TYPE": "U", "NORAD_CAT_ID": 43783, "ELEMENT_SET_NO": 999, "REV_AT_EPOCH": 38214, "BSTAR": 0.00027291493, "MEAN_MOTION_DOT": 3.279e-05, "MEAN_MOTION_DDOT": 0}, "tle": {"line1": "1 43783U 18099AB  25338.59275888  .00003279  00000+0  27291-3 0  9999", "line2": "2 43783  97.4554  14.1280 0006452   0.8139 359.3094 14.99310534382145"}}, "geometry": {"type": "Point", "coordinates": [-171.4640486282114, -38.066382243444714]}}, {"type": "Feature", "properties": {"norad_id": 43831, "name": "SAUDISAT 5A", "group": "resource", "lat": -70.21349617329552, "lon": -161.74315050546363, "alt_km": 503.670663410202, "timestamp": "2025-12-04T21:36:15.532058+00:00", "meta": {"OBJECT_NAME": "SAUDISAT 5A", "OBJECT_ID": "2018-102A", "EPOCH": "2025-12-04T15:46:58.799136", "MEAN_MOTION": 15.25502465, "ECCENTRICITY": 0.00117905, "INCLINATION": 97.3369, "RA_OF_ASC_NODE": 39.0058, "ARG_OF_PERICENTER": 101.017, "MEAN_ANOMALY": 259.2395, "EPHEMERIS_TYPE": 0, "CLASSIFICATION_TYPE": "U", "NORAD_CAT_ID": 43831, "ELEMENT_SET_NO": 999, "REV_AT_EPOCH": 38599, "BSTAR": 0.00054386444, "MEAN_MOTION_DOT": 0.00013745, "MEAN_MOTION_DDOT": 0}, "tle": {"line1": "1 43831U 18102A   25338.65762499  .00013745  00000+0  54386-3 0  9998", "line2": "2 43831  97.3369  39.0058 0011790 101.0170 259.2395 15.25502465385995"}}, "geometry": {"type": "Point", "coordinates": [-161.74315050546363, -70.21349617329552]}}, {"type": "Feature", "properties": {"norad_id": 43833, "name": "SAUDISAT 5B", "group": "resource", "lat": -65.31161359402283, "lon": 58.26747648201321, "alt_km": 503.879813482743, "timestamp": "2025-12-04T21:36:15.532069+00:00", "meta": {"OBJECT_NAME": "SAUDISAT 5B", "OBJECT_ID": "2018-102C", "EPOCH": "2025-12-04T15:35:58.854336", "MEAN_MOTION": 15.2585925, "ECCENTRICITY": 0.00125144, "INCLINATION": 97.3465, "RA_OF_ASC_NODE": 41.7223, "ARG_OF_PERICENTER": 103.5609, "MEAN_ANOMALY": 256.7025, "EPHEMERIS_TYPE": 0, "CLASSIFICATION_TYPE": "U", "NORAD_CAT_ID": 43833, "ELEMENT_SET_NO": 999, "REV_AT_EPOCH": 38610, "BSTAR": 0.00050208951, "MEAN_MOTION_DOT": 0.00012822, "MEAN_MOTION_DDOT": 0}, "tle": {"line1": "1 43833U 18102C   25338.64998674  .00012822  00000+0  50209-3 0  9990", "line2": "2 43833  97.3465  41.7223 0012514 103.5609 256.7025 15.25859250386100"}}, "geometry": {"type": "Point", "coordinates": [58.26747648201321, -65.31161359402283]}}]}